{
  "type": "FeatureCollection",
  "features": [
    {
      "type": "Feature",
      "properties": {
        "norad_id": 39227,
        "name": "ARIRANG-5 (KOMPSAT-5)",
        "group": "resource",
        "lat": -31.239447962717527,
        "lon": -170.79698581328273,
        "alt_km": 558.2693566243443,
        "timestamp": "2025-12-26T10:30:49.916310+00:00",
        "meta_object_name": "ARIRANG-5 (KOMPSAT-5)",
        "meta_object_id": "2013-042A",
        "meta_epoch": "2025-12-26T04:16:07.834944",
        "meta_mean_motion": 15.04486659,
        "meta_eccentricity": 0.0002969,
        "meta_inclination": 97.6166,
        "meta_ra_of_asc_node": 184.2909,
        "meta_arg_of_pericenter": 33.4961,
        "meta_mean_anomaly": 326.6453,
        "meta_ephemeris_type": 0,
        "meta_classification_type": "U",
        "meta_norad_cat_id": 39227,
        "meta_element_set_no": 999,
        "meta_rev_at_epoch": 67784,
        "meta_bstar": 0.00011036,
        "meta_mean_motion_dot": 1.484e-05,
        "meta_mean_motion_ddot": 0,
        "tle_line1": "1 39227U 13042A   25360.17786846  .00001484  00000+0  11036-3 0  9996",
        "tle_line2": "2 39227  97.6166 184.2909 0002969  33.4961 326.6453 15.04486659677844"
      },
      "geometry": {
        "type": "Point",
        "coordinates": [
          -170.79698581328273,
          -31.239447962717527
        ]
      }
    },
    {
      "type": "Feature",
      "properties": {
        "norad_id": 39418,
        "name": "SKYSAT-A",
        "group": "resource",
        "lat": -26.909800236336327,
        "lon": 54.01617278371501,
        "alt_km": 549.1766882373795,
        "timestamp": "2025-12-26T10:30:49.916320+00:00",
        "meta_object_name": "SKYSAT-A",
        "meta_object_id": "2013-066C",
        "meta_epoch": "2025-12-26T02:41:27.845376",
        "meta_mean_motion": 15.11697781,
        "meta_eccentricity": 0.0021739,
        "meta_inclination": 97.4086,
        "meta_ra_of_asc_node": 49.9135,
        "meta_arg_of_pericenter": 188.7352,
        "meta_mean_anomaly": 171.3503,
        "meta_ephemeris_type": 0,
        "meta_classification_type": "U",
        "meta_norad_cat_id": 39418,
        "meta_element_set_no": 999,
        "meta_rev_at_epoch": 66232,
        "meta_bstar": 0.00020438,
        "meta_mean_motion_dot": 3.435e-05,
        "meta_mean_motion_ddot": 0,
        "tle_line1": "1 39418U 13066C   25360.11212784  .00003435  00000+0  20438-3 0  9997",
        "tle_line2": "2 39418  97.4086  49.9135 0021739 188.7352 171.3503 15.11697781662323"
      },
      "geometry": {
        "type": "Point",
        "coordinates": [
          54.01617278371501,
          -26.909800236336327
        ]
      }
    },
    {
      "type": "Feature",
      "properties": {
        "norad_id": 39419,
        "name": "DUBAISAT-2",
        "group": "resource",
        "lat": -43.69661962262293,
        "lon": -2.3957993118396272,
        "alt_km": 543.0134261324165,
        "timestamp": "2025-12-26T10:30:49.916330+00:00",
        "meta_object_name": "DUBAISAT-2",
        "meta_object_id": "2013-066D",
        "meta_epoch": "2025-12-26T05:55:59.408832",
        "meta_mean_motion": 15.08489138,
        "meta_eccentricity": 0.0009772,
        "meta_inclination": 97.4469,
        "meta_ra_of_asc_node": 350.2395,
        "meta_arg_of_pericenter": 268.4952,
        "meta_mean_anomaly": 91.5157,
        "meta_ephemeris_type": 0,
        "meta_classification_type": "U",
        "meta_norad_cat_id": 39419,
        "meta_element_set_no": 999,
        "meta_rev_at_epoch": 66030,
        "meta_bstar": 0.00047897,
        "meta_mean_motion_dot": 7.416e-05,
        "meta_mean_motion_ddot": 0,
        "tle_line1": "1 39419U 13066D   25360.24721538  .00007416  00000+0  47897-3 0  9995",
        "tle_line2": "2 39419  97.4469 350.2395 0009772 268.4952  91.5157 15.08489138660305"
      },
      "geometry": {
        "type": "Point",
        "coordinates": [
          -2.3957993118396272,
          -43.69661962262293
        ]
      }
    },
    {
      "type": "Feature",
      "properties": {
        "norad_id": 39574,
        "name": "GPM-CORE",
        "group": "resource",
        "lat": 54.97164870145494,
        "lon": -54.99406854634161,
        "alt_km": 430.51735279697004,
        "timestamp": "2025-12-26T10:30:49.916341+00:00",
        "meta_object_name": "GPM-CORE",
        "meta_object_id": "2014-009C",
        "meta_epoch": "2025-12-26T00:41:34.647072",
        "meta_mean_motion": 15.44672423,
        "meta_eccentricity": 0.0009052,
        "meta_inclination": 64.9728,
        "meta_ra_of_asc_node": 168.1776,
        "meta_arg_of_pericenter": 251.2366,
        "meta_mean_anomaly": 108.7793,
        "meta_ephemeris_type": 0,
        "meta_classification_type": "U",
        "meta_norad_cat_id": 39574,
        "meta_element_set_no": 999,
        "meta_rev_at_epoch": 67106,
        "meta_bstar": 0.00019234,
        "meta_mean_motion_dot": 8.785e-05,
        "meta_mean_motion_ddot": 0,
        "tle_line1": "1 39574U 14009C   25360.02887323  .00008785  00000+0  19234-3 0  9990",
        "tle_line2": "2 39574  64.9728 168.1776 0009052 251.2366 108.7793 15.44672423671066"
      },
      "geometry": {
        "type": "Point",
        "coordinates": [
          -54.99406854634161,
          54.97164870145494
        ]
      }
    },
    {
      "type": "Feature",
      "properties": {
        "norad_id": 39634,
        "name": "SENTINEL-1A",
        "group": "resource",
        "lat": 39.742496524630475,
        "lon": -1.3923568490571827,
        "alt_km": 692.0493191119667,
        "timestamp": "2025-12-26T10:30:49.916351+00:00",
        "meta_object_name": "SENTINEL-1A",
        "meta_object_id": "2014-016A",
        "meta_epoch": "2025-12-26T03:44:50.140896",
        "meta_mean_motion": 14.59199806,
        "meta_eccentricity": 0.0001261,
        "meta_inclination": 98.1803,
        "meta_ra_of_asc_node": 5.1991,
        "meta_arg_of_pericenter": 85.293,
        "meta_mean_anomaly": 274.8414,
        "meta_ephemeris_type": 0,
        "meta_classification_type": "U",
        "meta_norad_cat_id": 39634,
        "meta_element_set_no": 999,
        "meta_rev_at_epoch": 62478,
        "meta_bstar": 2.3206e-05,
        "meta_mean_motion_dot": 6.4e-07,
        "meta_mean_motion_ddot": 0,
        "tle_line1": "1 39634U 14016A   25360.15613589  .00000064  00000+0  23206-4 0  9997",
        "tle_line2": "2 39634  98.1803   5.1991 0001261  85.2930 274.8414 14.59199806624787"
      },
      "geometry": {
        "type": "Point",
        "coordinates": [
          -1.3923568490571827,
          39.742496524630475
        ]
      }
    },
    {
      "type": "Feature",
      "properties": {
        "norad_id": 39731,
        "name": "KAZEOSAT 1",
        "group": "resource",
        "lat": -69.56797292893746,
        "lon": -131.15649796896827,
        "alt_km": 759.7143949916453,
        "timestamp": "2025-12-26T10:30:49.916361+00:00",
        "meta_object_name": "KAZEOSAT 1",
        "meta_object_id": "2014-024A",
        "meta_epoch": "2025-12-26T04:21:23.823936",
        "meta_mean_motion": 14.42069723,
        "meta_eccentricity": 0.000122,
        "meta_inclination": 98.3414,
        "meta_ra_of_asc_node": 71.7863,
        "meta_arg_of_pericenter": 97.6795,
        "meta_mean_anomaly": 262.4533,
        "meta_ephemeris_type": 0,
        "meta_classification_type": "U",
        "meta_norad_cat_id": 39731,
        "meta_element_set_no": 999,
        "meta_rev_at_epoch": 61362,
        "meta_bstar": 5.0425e-05,
        "meta_mean_motion_dot": 1.23e-06,
        "meta_mean_motion_ddot": 0,
        "tle_line1": "1 39731U 14024A   25360.18152574  .00000123  00000+0  50425-4 0  9998",
        "tle_line2": "2 39731  98.3414  71.7863 0001220  97.6795 262.4533 14.42069723613625"
      },
      "geometry": {
        "type": "Point",
        "coordinates": [
          -131.15649796896827,
          -69.56797292893746
        ]
      }
    },
    {
      "type": "Feature",
      "properties": {
        "norad_id": 39766,
        "name": "ALOS-2",
        "group": "resource",
        "lat": 3.0319688727259053,
        "lon": -84.48873503230855,
        "alt_km": 633.4598285961956,
        "timestamp": "2025-12-26T10:30:49.916371+00:00",
        "meta_object_name": "ALOS-2",
        "meta_object_id": "2014-029A",
        "meta_epoch": "2025-12-26T04:50:51.877248",
        "meta_mean_motion": 14.79471307,
        "meta_eccentricity": 0.0001415,
        "meta_inclination": 97.9221,
        "meta_ra_of_asc_node": 94.856,
        "meta_arg_of_pericenter": 96.0944,
        "meta_mean_anomaly": 264.0429,
        "meta_ephemeris_type": 0,
        "meta_classification_type": "U",
        "meta_norad_cat_id": 39766,
        "meta_element_set_no": 999,
        "meta_rev_at_epoch": 62600,
        "meta_bstar": 0.00020332,
        "meta_mean_motion_dot": 1.467e-05,
        "meta_mean_motion_ddot": 0,
        "tle_line1": "1 39766U 14029A   25360.20198932  .00001467  00000+0  20332-3 0  9997",
        "tle_line2": "2 39766  97.9221  94.8560 0001415  96.0944 264.0429 14.79471307626002"
      },
      "geometry": {
        "type": "Point",
        "coordinates": [
          -84.48873503230855,
          3.0319688727259053
        ]
      }
    }
  ]
}